NORAD_CAT_ID,OBJECT_NAME,OBJECT_TYPE,EPOCH,MEAN_MOTION,ECCENTRICITY,INCLINATION,RA_OF_ASC_NODE,ARG_OF_PERICENTER,MEAN_ANOMALY,BSTAR,MEAN_MOTION_DOT,MEAN_MOTION_DDOT,TLE_LINE0,TLE_LINE1,TLE_LINE2,SEMIMAJOR_AXIS,PERIOD,APOGEE,PERIGEE,DECAYED
55780.0,STARLINK-5819,PAYLOAD,2024-06-11 01:00:35,14.98334471,0.0002916,70.0006,29.5022,267.2707,92.8118,0.00012039,1.344e-05,0.0,0 STARLINK-5819,1 55780U 23028AR  24163.04207777  .00001344  00000-0  12039-3 0  9990,2 55780  70.0006  29.5022 0002916 267.2707  92.8118 14.98334471 71178,6950.179,96.107,574.071,570.017,0.0
55780.0,STARLINK-5819,PAYLOAD,2024-06-12 01:02:36,14.98331294,0.0002841,70.0021,26.9797,264.115,95.9685,0.00040356,4.726e-05,0.0,0 STARLINK-5819,1 55780U 23028AR  24164.04347253  .00004726  00000-0  40356-3 0  9995,2 55780  70.0021  26.9797 0002841 264.1150  95.9685 14.98331294 71320,6950.189,96.107,574.028,570.079,0.0
55780.0,STARLINK-5819,PAYLOAD,2024-06-12 20:16:13,14.98328464,0.0002972,70.0009,24.9603,251.3976,108.6861,-4.2644e-05,-6.02e-06,0.0,0 STARLINK-5819,1 55780U 23028AR  24164.84460031 -.00000602  00000-0 -42644-4 0  9997,2 55780  70.0009  24.9603 0002972 251.3976 108.6861 14.98328464 71445,6950.198,96.107,574.128,569.997,0.0
55780.0,STARLINK-5819,PAYLOAD,2024-06-12 21:52:21,14.98326999,0.000307,70.0012,24.7924,250.8404,109.2423,-4.479e-05,-6.27e-06,0.0,0 STARLINK-5819,1 55780U 23028AR  24164.91136130 -.00000627  00000-0 -44790-4 0  9996,2 55780  70.0012  24.7924 0003070 250.8404 109.2423 14.98326999 71456,6950.202,96.107,574.201,569.933,0.0
55780.0,STARLINK-5819,PAYLOAD,2024-06-13 07:29:09,14.98330307,0.0003141,70.0,23.7797,263.4931,96.5871,-2.5247e-05,-3.94e-06,0.0,0 STARLINK-5819,1 55780U 23028AR  24165.31191942 -.00000394  00000-0 -25247-4 0  9990,2 55780  70.0000  23.7797 0003141 263.4931  96.5871 14.98330307 71514,6950.192,96.107,574.24,569.874,0.0
55780.0,STARLINK-5819,PAYLOAD,2024-06-13 21:54:21,14.98335503,0.0003161,69.9997,22.2639,267.0428,93.0369,6.2337e-05,6.51e-06,0.0,0 STARLINK-5819,1 55780U 23028AR  24165.91275360  .00000651  00000-0  62337-4 0  9998,2 55780  69.9997  22.2639 0003161 267.0428  93.0369 14.98335503 71605,6950.176,96.107,574.238,569.844,0.0
55780.0,STARLINK-5819,PAYLOAD,2024-06-13 23:30:29,14.98338887,0.0002972,70.0,22.0955,267.5195,92.5624,4.3378e-05,4.25e-06,0.0,0 STARLINK-5819,1 55780U 23028AR  24165.97951183  .00000425  00000-0  43378-4 0  9991,2 55780  70.0000  22.0955 0002972 267.5195  92.5624 14.98338887 71614,6950.165,96.106,574.096,569.965,0.0
55780.0,STARLINK-5819,PAYLOAD,2024-06-14 20:20:15,14.98323513,0.0003022,70.0002,19.9071,263.8847,96.1968,0.00017149,1.953e-05,0.0,0 STARLINK-5819,1 55780U 23028AR  24166.84739883  .00001953  00000-0  17149-3 0  9992,2 55780  70.0002  19.9071 0003022 263.8847  96.1968 14.98323513 71745,6950.213,96.107,574.178,569.978,0.0
55780.0,STARLINK-5819,PAYLOAD,2024-06-15 13:57:43,14.98331835,0.0003017,70.0003,18.0567,268.2431,91.8383,3.7863e-05,3.59e-06,0.0,0 STARLINK-5819,1 55780U 23028AR  24167.58175801  .00000359  00000-0  37863-4 0  9993,2 55780  70.0003  18.0567 0003017 268.2431  91.8383 14.98331835 71859,6950.187,96.107,574.149,569.955,0.0
55780.0,STARLINK-5819,PAYLOAD,2024-06-15 21:58:23,14.98335727,0.0003036,70.0002,17.2151,268.6106,91.4705,4.6022e-05,4.56e-06,0.0,0 STARLINK-5819,1 55780U 23028AR  24167.91555440  .00000456  00000-0  46022-4 0  9996,2 55780  70.0002  17.2151 0003036 268.6106  91.4705 14.98335727 71906,6950.175,96.107,574.15,569.93,0.0
55780.0,STARLINK-5819,PAYLOAD,2024-06-16 13:59:44,14.98331275,0.0003096,69.9997,15.5302,267.9044,92.176,4.4183e-05,4.34e-06,0.0,0 STARLINK-5819,1 55780U 23028AR  24168.58315621  .00000434  00000-0  44183-4 0  9997,2 55780  69.9997  15.5302 0003096 267.9044  92.1760 14.98331275 72009,6950.189,96.107,574.206,569.902,0.0
55780.0,STARLINK-5819,PAYLOAD,2024-06-16 22:00:24,14.98332571,0.0003092,69.9997,14.6887,268.1307,91.9498,5.3754e-05,5.48e-06,0.0,0 STARLINK-5819,1 55780U 23028AR  24168.91695484  .00000548  00000-0  53754-4 0  9992,2 55780  69.9997  14.6887 0003092 268.1307  91.9498 14.98332571 72058,6950.185,96.107,574.199,569.901,0.0
55780.0,STARLINK-5819,PAYLOAD,2024-06-17 20:26:17,14.98333738,0.0002971,70.0002,12.3323,267.3163,92.7656,7.7945e-05,8.37e-06,0.0,0 STARLINK-5819,1 55780U 23028AR  24169.85159251  .00000837  00000-0  77945-4 0  9992,2 55780  70.0002  12.3323 0002971 267.3163  92.7656 14.98333738 72190,6950.181,96.107,574.111,569.981,0.0
55780.0,STARLINK-5819,PAYLOAD,2024-06-17 22:02:25,14.98333744,0.0003104,69.9999,12.164,268.6669,91.4134,7.6774e-05,8.23e-06,0.0,0 STARLINK-5819,1 55780U 23028AR  24169.91835228  .00000823  00000-0  76774-4 0  9998,2 55780  69.9999  12.1640 0003104 268.6669  91.4134 14.98333744 72202,6950.181,96.107,574.204,569.889,0.0
55780.0,STARLINK-5819,PAYLOAD,2024-06-18 14:03:46,14.98334813,0.0002963,70.0003,10.4807,271.6307,88.4513,8.1759e-06,5e-08,0.0,0 STARLINK-5819,1 55780U 23028AR  24170.58595200  .00000005  00000-0  81759-5 0  9998,2 55780  70.0003  10.4807 0002963 271.6307  88.4513 14.98334813 72308,6950.178,96.107,574.102,569.984,0.0
55780.0,STARLINK-5819,PAYLOAD,2024-06-18 20:28:18,14.9830371,0.0002868,70.0003,9.8074,269.1642,90.9188,0.00063854,7.529e-05,0.0,0 STARLINK-5819,1 55780U 23028AR  24170.85299718  .00007529  00000-0  63854-3 0  9995,2 55780  70.0003   9.8074 0002868 269.1642  90.9188 14.98303710 72346,6950.274,96.109,574.133,570.146,0.0
55780.0,STARLINK-5819,PAYLOAD,2024-06-18 23:40:34,14.98334377,0.0003006,70.0003,9.4708,271.4908,88.5907,7.5951e-05,8.13e-06,0.0,0 STARLINK-5819,1 55780U 23028AR  24170.98650987  .00000813  00000-0  75951-4 0  9999,2 55780  70.0003   9.4708 0003006 271.4908  88.5907 14.98334377 72369,6950.179,96.107,574.134,569.955,0.0
55780.0,STARLINK-5819,PAYLOAD,2024-06-19 12:29:39,14.98329089,0.0002899,70.0006,8.1245,271.3464,88.7363,-2.3992e-05,-3.79e-06,0.0,0 STARLINK-5819,1 55780U 23028AR  24171.52059548 -.00000379  00000-0 -23992-4 0  9993,2 55780  70.0006   8.1245 0002899 271.3464  88.7363 14.98329089 72440,6950.196,96.107,574.076,570.046,0.0
55780.0,STARLINK-5819,PAYLOAD,2024-06-19 14:05:47,14.9832958,0.0002903,70.0005,7.9562,271.1594,88.9233,-2.0273e-05,-3.35e-06,0.0,0 STARLINK-5819,1 55780U 23028AR  24171.58735498 -.00000335  00000-0 -20273-4 0  9995,2 55780  70.0005   7.9562 0002903 271.1594  88.9233 14.98329580 72451,6950.194,96.107,574.077,570.042,0.0
55780.0,STARLINK-5819,PAYLOAD,2024-06-19 22:06:27,14.9832787,0.0002883,70.0005,7.115,268.4895,91.5933,-1.4718e-05,-2.69e-06,0.0,0 STARLINK-5819,1 55780U 23028AR  24171.92115553 -.00000269  00000-0 -14718-4 0  9990,2 55780  70.0005   7.1150 0002883 268.4895  91.5933 14.98327870 72509,6950.199,96.107,574.068,570.061,0.0
55780.0,STARLINK-5819,PAYLOAD,2024-06-20 14:07:48,14.98330091,0.0002912,70.0005,5.4318,267.4472,92.6354,-5.9456e-06,-1.64e-06,0.0,0 STARLINK-5819,1 55780U 23028AR  24172.58875452 -.00000164  00000-0 -59456-5 0  9997,2 55780  70.0005   5.4318 0002912 267.4472  92.6354 14.98330091 72608,6950.193,96.107,574.082,570.034,0.0
55780.0,STARLINK-5819,PAYLOAD,2024-06-20 22:08:28,14.9832984,0.0002916,70.0004,4.5901,267.6251,92.4574,-8.3202e-06,-1.92e-06,0.0,0 STARLINK-5819,1 55780U 23028AR  24172.92255470 -.00000192  00000-0 -83202-5 0  9994,2 55780  70.0004   4.5901 0002916 267.6251  92.4574 14.98329840 72653,6950.193,96.107,574.085,570.032,0.0
55780.0,STARLINK-5819,PAYLOAD,2024-06-21 14:09:49,14.98327575,0.0002952,70.0003,2.9063,268.3945,91.6876,6.7523e-05,7.13e-06,0.0,0 STARLINK-5819,1 55780U 23028AR  24173.59015494  .00000713  00000-0  67523-4 0  9992,2 55780  70.0003   2.9063 0002952 268.3945  91.6876 14.98327575 72751,6950.2,96.107,574.117,570.014,0.0
55780.0,STARLINK-5819,PAYLOAD,2024-06-21 22:10:29,14.98329556,0.0002955,70.0003,2.0646,268.3057,91.7764,7.4574e-05,7.97e-06,0.0,0 STARLINK-5819,1 55780U 23028AR  24173.92395389  .00000797  00000-0  74574-4 0  9999,2 55780  70.0003   2.0646 0002955 268.3057  91.7764 14.98329556 72800,6950.194,96.107,574.113,570.005,0.0
55780.0,STARLINK-5819,PAYLOAD,2024-06-22 14:11:50,14.98330941,0.0002969,70.0003,0.3812,268.1957,91.8862,7.6153e-05,8.16e-06,0.0,0 STARLINK-5819,1 55780U 23028AR  24174.59155307  .00000816  00000-0  76153-4 0  9994,2 55780  70.0003   0.3812 0002969 268.1957  91.8862 14.98330941 72909,6950.19,96.107,574.118,569.991,0.0
55780.0,STARLINK-5819,PAYLOAD,2024-06-22 22:12:30,14.98332462,0.000297,70.0003,359.5392,267.4492,92.6327,7.2742e-05,7.75e-06,0.0,0 STARLINK-5819,1 55780U 23028AR  24174.92535191  .00000775  00000-0  72742-4 0  9998,2 55780  70.0003 359.5392 0002970 267.4492  92.6327 14.98332462 72959,6950.185,96.107,574.114,569.986,0.0
55780.0,STARLINK-5819,PAYLOAD,2024-06-23 14:13:51,14.98328642,0.0002869,70.0007,357.8572,262.5337,97.5497,6.5282e-06,-1.5e-07,0.0,0 STARLINK-5819,1 55780U 23028AR  24175.59295583 -.00000015  00000-0  65282-5 0  9990,2 55780  70.0007 357.8572 0002869 262.5337  97.5497 14.98328642 73054,6950.197,96.107,574.056,570.068,0.0
55780.0,STARLINK-5819,PAYLOAD,2024-06-23 22:14:31,14.9833197,0.0002967,70.0004,357.0154,263.3897,96.6924,3.0021e-05,2.65e-06,0.0,0 STARLINK-5819,1 55780U 23028AR  24175.92675304  .00000265  00000-0  30021-4 0  9998,2 55780  70.0004 357.0154 0002967 263.3897  96.6924 14.98331970 73107,6950.187,96.107,574.114,569.99,0.0
55780.0,STARLINK-5819,PAYLOAD,2024-06-24 14:15:51,14.98333849,0.0002978,70.0003,355.3321,263.903,96.179,3.0298e-05,2.69e-06,0.0,0 STARLINK-5819,1 55780U 23028AR  24176.59435096  .00000269  00000-0  30298-4 0  9994,2 55780  70.0003 355.3321 0002978 263.9030  96.1790 14.98333849 73204,6950.181,96.107,574.116,569.976,0.0
55780.0,STARLINK-5819,PAYLOAD,2024-06-24 20:40:23,14.9833558,0.0002957,70.0004,354.6588,263.2677,96.8146,4.9786e-05,5.01e-06,0.0,0 STARLINK-5819,1 55780U 23028AR  24176.86138868  .00000501  00000-0  49786-4 0  9992,2 55780  70.0004 354.6588 0002957 263.2677  96.8146 14.98335580 73249,6950.176,96.107,574.096,569.985,0.0
